ONEWEB-0033             
1 45142U 20008M   24164.11192905  .00000590  00000+0  16546-2 0  9998
2 45142  87.8935 182.4561 0002088  84.1031 276.0335 13.10373976211943
ONEWEB-0035             
1 45143U 20008N   24164.29615905 -.00000247  00000+0 -74389-3 0  9999
2 45143  87.8934 182.4009 0002106  88.9461 271.1907 13.10371023211694
ONEWEB-0036             
1 45144U 20008P   24164.28620867  .00000296  00000+0  81266-3 0  9996
2 45144  87.8929 182.3602 0001959  95.6417 264.4934 13.10369354212126
ONEWEB-0038             
1 45145U 20008Q   24164.26637487 -.00000454  00000+0 -13177-2 0  9994
2 45145  87.8958 167.2942 0002714 100.2240 259.9194 13.11416256214006
ONEWEB-0040             
1 45147U 20008S   24164.10860746  .00000475  00000+0  13252-2 0  9990
2 45147  87.8945 182.4138 0002088  92.3028 267.8339 13.10374395211595
ONEWEB-0043             
1 45149U 20008U   24164.11026789  .00000574  00000+0  16071-2 0  9996
2 45149  87.8939 182.4206 0001970 105.9436 254.1909 13.10374178211916
ONEWEB-0044             
1 45150U 20008V   24164.29118650 -.00000027  00000+0 -11311-3 0  9994
2 45150  87.8931 182.3803 0001915 100.5500 259.5843 13.10370360212235
